ONEWEB-0035             
1 45143U 20008N   25214.21463881  .00000657  00000+0  18455-2 0  9996
2 45143  87.8793  99.9121 0001798  73.3045 286.8279 13.10372458266166
ONEWEB-0036             
1 45144U 20008P   25214.20466073  .00000389  00000+0  10779-2 0  9995
2 45144  87.8805  99.8568 0001817  86.2933 273.8402 13.10377898266590
ONEWEB-0038             
1 45145U 20008Q   25214.17208991  .00000544  00000+0  14982-2 0  9998
2 45145  87.8812  84.6428 0003502  67.1991 292.9507 13.11416615268515
ONEWEB-0039             
1 45146U 20008R   25215.17987417 -.00000396  00000+0 -11696-2 0  9993
2 45146  87.8798  99.6843 0002194  86.5337 273.6041 13.10374406267294
ONEWEB-0040             
1 45147U 20008S   25214.63872435 -.00000565  00000+0 -16550-2 0  9999
2 45147  87.8805  99.8209 0001833  78.3725 281.7608 13.10373310266933
ONEWEB-0043             
1 45149U 20008U   25214.41131003 -.00000503  00000+0 -14784-2 0  9995
2 45149  87.8801  99.8505 0001931  90.9569 269.1779 13.10373640266435
ONEWEB-0044             
1 45150U 20008V   25215.20314112  .00000635  00000+0  17822-2 0  9999
2 45150  87.8795  99.6842 0001914  86.1259 274.0088 13.10373441267602
ONEWEB-0045             
1 45151U 20008W   25214.16684913  .00002262  00000+0  63462-2 0  9992
2 45151  87.8808  84.6166 0002134  79.3649 280.7719 13.11408901268598
ONEWEB-0047             
1 45152U 20008X   25214.50927959  .00001049  00000+0  29687-2 0  9994
2 45152  87.8801  99.8316 0001938  79.8190 280.3156 13.10372163266468
ONEWEB-0048             
1 45153U 20008Y   25214.65701046  .00000274  00000+0  74965-3 0  9997
2 45153  87.8803  99.8266 0001839  79.7172 280.4163 13.10375288266857
ONEWEB-0049             
1 45154U 20008Z   25214.50679050  .00000363  00000+0  10048-2 0  9991
2 45154  87.8799  99.8498 0001483  90.8564 269.2733 13.10376050266297
ONEWEB-0051             
1 45155U 20008AA  25214.39404646  .00000494  00000+0  13570-2 0  9994
2 45155  87.8802  84.6144 0001745  77.3792 282.7531 13.11417414269309
ONEWEB-0052             
1 45156U 20008AB  25214.42543793  .00000257  00000+0  70021-3 0  9998
2 45156  87.8816  99.8122 0001554  95.4220 264.7085 13.10376485266193
ONEWEB-0053             
1 45157U 20008AC  25214.17892277 -.00000455  00000+0 -13407-2 0  9991
2 45157  87.8799  99.9195 0002147  81.1811 278.9559 13.10375982266130
ONEWEB-0054             
1 45158U 20008AD  25214.21380449 -.00002984  00000+0 -85860-2 0  9991
2 45158  87.8797  99.8863 0001267  97.1971 262.9300 13.10389631266252
ONEWEB-0056             
1 45159U 20008AE  25215.18735388 -.00000037  00000+0 -14292-3 0  9994
2 45159  87.8800  99.6891 0001793  78.8735 281.2594 13.10374990267291
ONEWEB-0057             
1 45160U 20008AF  25214.50762133  .00000333  00000+0  91637-3 0  9994
2 45160  87.8801  99.8384 0001842  83.4631 276.6706 13.10374810266614
