[{"OBJECT_NAME":"ONEWEB-0035","OBJECT_ID":"2020-008N","EPOCH":"2025-08-02T05:09:04.793184","MEAN_MOTION":13.10372458,"ECCENTRICITY":0.0001798,"INCLINATION":87.8793,"RA_OF_ASC_NODE":99.9121,"ARG_OF_PERICENTER":73.3045,"MEAN_ANOMALY":286.8279,"EPHEMERIS_TYPE":0,"CLASSIFICATION_TYPE":"U","NORAD_CAT_ID":45143,"ELEMENT_SET_NO":999,"REV_AT_EPOCH":26616,"BSTAR":0.0018455,"MEAN_MOTION_DOT":6.57e-6,"MEAN_MOTION_DDOT":0},{"OBJECT_NAME":"ONEWEB-0036","OBJECT_ID":"2020-008P","EPOCH":"2025-08-02T04:54:42.687072","MEAN_MOTION":13.10377898,"ECCENTRICITY":0.0001817,"INCLINATION":87.8805,"RA_OF_ASC_NODE":99.8568,"ARG_OF_PERICENTER":86.2933,"MEAN_ANOMALY":273.8402,"EPHEMERIS_TYPE":0,"CLASSIFICATION_TYPE":"U","NORAD_CAT_ID":45144,"ELEMENT_SET_NO":999,"REV_AT_EPOCH":26659,"BSTAR":0.0010779,"MEAN_MOTION_DOT":3.89e-6,"MEAN_MOTION_DDOT":0},{"OBJECT_NAME":"ONEWEB-0038","OBJECT_ID":"2020-008Q","EPOCH":"2025-08-02T04:07:48.568224","MEAN_MOTION":13.11416615,"ECCENTRICITY":0.0003502,"INCLINATION":87.8812,"RA_OF_ASC_NODE":84.6428,"ARG_OF_PERICENTER":67.1991,"MEAN_ANOMALY":292.9507,"EPHEMERIS_TYPE":0,"CLASSIFICATION_TYPE":"U","NORAD_CAT_ID":45145,"ELEMENT_SET_NO":999,"REV_AT_EPOCH":26851,"BSTAR":0.0014982,"MEAN_MOTION_DOT":5.44e-6,"MEAN_MOTION_DDOT":0},{"OBJECT_NAME":"ONEWEB-0039","OBJECT_ID":"2020-008R","EPOCH":"2025-08-03T04:19:01.128288","MEAN_MOTION":13.10374406,"ECCENTRICITY":0.0002194,"INCLINATION":87.8798,"RA_OF_ASC_NODE":99.6843,"ARG_OF_PERICENTER":86.5337,"MEAN_ANOMALY":273.6041,"EPHEMERIS_TYPE":0,"CLASSIFICATION_TYPE":"U","NORAD_CAT_ID":45146,"ELEMENT_SET_NO":999,"REV_AT_EPOCH":26729,"BSTAR":-0.0011696,"MEAN_MOTION_DOT":-3.96e-6,"MEAN_MOTION_DDOT":0},{"OBJECT_NAME":"ONEWEB-0040","OBJECT_ID":"2020-008S","EPOCH":"2025-08-02T15:19:45.783840","MEAN_MOTION":13.1037331,"ECCENTRICITY":0.0001833,"INCLINATION":87.8805,"RA_OF_ASC_NODE":99.8209,"ARG_OF_PERICENTER":78.3725,"MEAN_ANOMALY":281.7608,"EPHEMERIS_TYPE":0,"CLASSIFICATION_TYPE":"U","NORAD_CAT_ID":45147,"ELEMENT_SET_NO":999,"REV_AT_EPOCH":26693,"BSTAR":-0.001655,"MEAN_MOTION_DOT":-5.65e-6,"MEAN_MOTION_DDOT":0},{"OBJECT_NAME":"ONEWEB-0043","OBJECT_ID":"2020-008U","EPOCH":"2025-08-02T09:52:17.186592","MEAN_MOTION":13.1037364,"ECCENTRICITY":0.0001931,"INCLINATION":87.8801,"RA_OF_ASC_NODE":99.8505,"ARG_OF_PERICENTER":90.9569,"MEAN_ANOMALY":269.1779,"EPHEMERIS_TYPE":0,"CLASSIFICATION_TYPE":"U","NORAD_CAT_ID":45149,"ELEMENT_SET_NO":999,"REV_AT_EPOCH":26643,"BSTAR":-0.0014784,"MEAN_MOTION_DOT":-5.03e-6,"MEAN_MOTION_DDOT":0},{"OBJECT_NAME":"ONEWEB-0044","OBJECT_ID":"2020-008V","EPOCH":"2025-08-03T04:52:31.392768","MEAN_MOTION":13.10373441,"ECCENTRICITY":0.0001914,"INCLINATION":87.8795,"RA_OF_ASC_NODE":99.6842,"ARG_OF_PERICENTER":86.1259,"MEAN_ANOMALY":274.0088,"EPHEMERIS_TYPE":0,"CLASSIFICATION_TYPE":"U","NORAD_CAT_ID":45150,"ELEMENT_SET_NO":999,"REV_AT_EPOCH":26760,"BSTAR":0.0017822,"MEAN_MOTION_DOT":6.35e-6,"MEAN_MOTION_DDOT":0},{"OBJECT_NAME":"ONEWEB-0045","OBJECT_ID":"2020-008W","EPOCH":"2025-08-02T04:00:15.764832","MEAN_MOTION":13.11408901,"ECCENTRICITY":0.0002134,"INCLINATION":87.8808,"RA_OF_ASC_NODE":84.6166,"ARG_OF_PERICENTER":79.3649,"MEAN_ANOMALY":280.7719,"EPHEMERIS_TYPE":0,"CLASSIFICATION_TYPE":"U","NORAD_CAT_ID":45151,"ELEMENT_SET_NO":999,"REV_AT_EPOCH":26859,"BSTAR":0.0063462,"MEAN_MOTION_DOT":2.262e-5,"MEAN_MOTION_DDOT":0},{"OBJECT_NAME":"ONEWEB-0047","OBJECT_ID":"2020-008X","EPOCH":"2025-08-02T12:13:21.756576","MEAN_MOTION":13.10372163,"ECCENTRICITY":0.0001938,"INCLINATION":87.8801,"RA_OF_ASC_NODE":99.8316,"ARG_OF_PERICENTER":79.819,"MEAN_ANOMALY":280.3156,"EPHEMERIS_TYPE":0,"CLASSIFICATION_TYPE":"U","NORAD_CAT_ID":45152,"ELEMENT_SET_NO":999,"REV_AT_EPOCH":26646,"BSTAR":0.0029687,"MEAN_MOTION_DOT":1.049e-5,"MEAN_MOTION_DDOT":0},{"OBJECT_NAME":"ONEWEB-0048","OBJECT_ID":"2020-008Y","EPOCH":"2025-08-02T15:46:05.703744","MEAN_MOTION":13.10375288,"ECCENTRICITY":0.0001839,"INCLINATION":87.8803,"RA_OF_ASC_NODE":99.8266,"ARG_OF_PERICENTER":79.7172,"MEAN_ANOMALY":280.4163,"EPHEMERIS_TYPE":0,"CLASSIFICATION_TYPE":"U","NORAD_CAT_ID":45153,"ELEMENT_SET_NO":999,"REV_AT_EPOCH":26685,"BSTAR":0.00074965,"MEAN_MOTION_DOT":2.74e-6,"MEAN_MOTION_DDOT":0},{"OBJECT_NAME":"ONEWEB-0049","OBJECT_ID":"2020-008Z","EPOCH":"2025-08-02T12:09:46.699200","MEAN_MOTION":13.1037605,"ECCENTRICITY":0.0001483,"INCLINATION":87.8799,"RA_OF_ASC_NODE":99.8498,"ARG_OF_PERICENTER":90.8564,"MEAN_ANOMALY":269.2733,"EPHEMERIS_TYPE":0,"CLASSIFICATION_TYPE":"U","NORAD_CAT_ID":45154,"ELEMENT_SET_NO":999,"REV_AT_EPOCH":26629,"BSTAR":0.0010048,"MEAN_MOTION_DOT":3.63e-6,"MEAN_MOTION_DDOT":0},{"OBJECT_NAME":"ONEWEB-0051","OBJECT_ID":"2020-008AA","EPOCH":"2025-08-02T09:27:25.614144","MEAN_MOTION":13.11417414,"ECCENTRICITY":0.0001745,"INCLINATION":87.8802,"RA_OF_ASC_NODE":84.6144,"ARG_OF_PERICENTER":77.3792,"MEAN_ANOMALY":282.7531,"EPHEMERIS_TYPE":0,"CLASSIFICATION_TYPE":"U","NORAD_CAT_ID":45155,"ELEMENT_SET_NO":999,"REV_AT_EPOCH":26930,"BSTAR":0.001357,"MEAN_MOTION_DOT":4.94e-6,"MEAN_MOTION_DDOT":0},{"OBJECT_NAME":"ONEWEB-0052","OBJECT_ID":"2020-008AB","EPOCH":"2025-08-02T10:12:37.837152","MEAN_MOTION":13.10376485,"ECCENTRICITY":0.0001554,"INCLINATION":87.8816,"RA_OF_ASC_NODE":99.8122,"ARG_OF_PERICENTER":95.422,"MEAN_ANOMALY":264.7085,"EPHEMERIS_TYPE":0,"CLASSIFICATION_TYPE":"U","NORAD_CAT_ID":45156,"ELEMENT_SET_NO":999,"REV_AT_EPOCH":26619,"BSTAR":0.00070021,"MEAN_MOTION_DOT":2.57e-6,"MEAN_MOTION_DDOT":0},{"OBJECT_NAME":"ONEWEB-0053","OBJECT_ID":"2020-008AC","EPOCH":"2025-08-02T04:17:38.927328","MEAN_MOTION":13.10375982,"ECCENTRICITY":0.0002147,"INCLINATION":87.8799,"RA_OF_ASC_NODE":99.9195,"ARG_OF_PERICENTER":81.1811,"MEAN_ANOMALY":278.9559,"EPHEMERIS_TYPE":0,"CLASSIFICATION_TYPE":"U","NORAD_CAT_ID":45157,"ELEMENT_SET_NO":999,"REV_AT_EPOCH":26613,"BSTAR":-0.0013407,"MEAN_MOTION_DOT":-4.55e-6,"MEAN_MOTION_DDOT":0},{"OBJECT_NAME":"ONEWEB-0054","OBJECT_ID":"2020-008AD","EPOCH":"2025-08-02T05:07:52.707936","MEAN_MOTION":13.10389631,"ECCENTRICITY":0.0001267,"INCLINATION":87.8797,"RA_OF_ASC_NODE":99.8863,"ARG_OF_PERICENTER":97.1971,"MEAN_ANOMALY":262.93,"EPHEMERIS_TYPE":0,"CLASSIFICATION_TYPE":"U","NORAD_CAT_ID":45158,"ELEMENT_SET_NO":999,"REV_AT_EPOCH":26625,"BSTAR":-0.008586,"MEAN_MOTION_DOT":-2.984e-5,"MEAN_MOTION_DDOT":0},{"OBJECT_NAME":"ONEWEB-0056","OBJECT_ID":"2020-008AE","EPOCH":"2025-08-03T04:29:47.375232","MEAN_MOTION":13.1037499,"ECCENTRICITY":0.0001793,"INCLINATION":87.88,"RA_OF_ASC_NODE":99.6891,"ARG_OF_PERICENTER":78.8735,"MEAN_ANOMALY":281.2594,"EPHEMERIS_TYPE":0,"CLASSIFICATION_TYPE":"U","NORAD_CAT_ID":45159,"ELEMENT_SET_NO":999,"REV_AT_EPOCH":26729,"BSTAR":-0.00014292,"MEAN_MOTION_DOT":-3.7e-7,"MEAN_MOTION_DDOT":0},{"OBJECT_NAME":"ONEWEB-0057","OBJECT_ID":"2020-008AF","EPOCH":"2025-08-02T12:10:58.482912","MEAN_MOTION":13.1037481,"ECCENTRICITY":0.0001842,"INCLINATION":87.8801,"RA_OF_ASC_NODE":99.8384,"ARG_OF_PERICENTER":83.4631,"MEAN_ANOMALY":276.6706,"EPHEMERIS_TYPE":0,"CLASSIFICATION_TYPE":"U","NORAD_CAT_ID":45160,"ELEMENT_SET_NO":999,"REV_AT_EPOCH":26661,"BSTAR":0.00091637,"MEAN_MOTION_DOT":3.33e-6,"MEAN_MOTION_DDOT":0}]
